OBJECT_NAME,OBJECT_ID,EPOCH,MEAN_MOTION,ECCENTRICITY,INCLINATION,RA_OF_ASC_NODE,ARG_OF_PERICENTER,MEAN_ANOMALY,EPHEMERIS_TYPE,CLASSIFICATION_TYPE,NORAD_CAT_ID,ELEMENT_SET_NO,REV_AT_EPOCH,BSTAR,MEAN_MOTION_DOT,MEAN_MOTION_DDOT
SAUDISAT 1C (SO-50),2002-058C,2026-07-11T00:37:22.327104,14.83093538,.0074652,64.5517,55.2264,258.0491,101.2239,0,U,27607,999,26799,.64019E-4,.39E-5,0
SAUDISAT 2,2004-025F,2026-07-09T11:45:59.678784,14.56696323,.00237709,98.5516,191.0492,226.2459,133.6771,0,U,28371,999,16899,.45778518E-4,.155E-5,0
PISAT,2016-059B,2026-07-10T21:59:06.554112,14.69024780,.0030251,97.8188,191.3501,127.9102,232.4846,0,U,41784,999,52322,.9409E-4,.508E-5,0
FLYING LAPTOP,2017-042G,2026-07-11T04:20:42.203328,15.01295902,.0019867,97.4788,346.8083,45.1720,315.1115,0,U,42831,999,49005,.17532E-3,.2206E-4,0
SALSAT,2020-068K,2026-07-10T10:17:36.763872,15.30129687,.00086995,97.8857,195.9138,210.5134,149.5600,0,U,46495,999,31891,.18731159E-3,.5381E-4,0
